BEIDOU 3 (C01)          
1 36287U 10001A   23008.63304285 -.00000268  00000+0  00000+0 0  9997
2 36287   1.8757  51.9303 0002410 254.4290 169.8428  1.00275738 47574
BEIDOU 5 (C06)          
1 36828U 10036A   23009.30153800 -.00000079  00000+0  00000+0 0  9996
2 36828  54.2027 174.3474 0034728 182.5130 326.7985  1.00291990 45643
BEIDOU 6 (C04)          
1 37210U 10057A   23008.86100225 -.00000099  00000+0  00000+0 0  9990
2 37210   0.9166  51.0695 0006136 175.0369 351.9948  1.00273289 44694
BEIDOU 7 (C07)          
1 37256U 10068A   23008.70645869 -.00000173  00000+0  00000+0 0  9996
2 37256  49.8420 287.1816 0025098 206.7860 332.6392  1.00303278 44200
BEIDOU 8 (C08)          
1 37384U 11013A   23008.57011441 -.00000158  00000+0  00000+0 0  9990
2 37384  60.5864  52.2370 0023682 189.4815 176.2841  1.00254078 43083
BEIDOU 9 (C09)          
1 37763U 11038A   23007.91613666  .00000009  00000+0  00000+0 0  9996
2 37763  54.4780 176.8673 0101691 227.2987 127.9508  1.00280933 42047
BEIDOU 10 (C10)         
1 37948U 11073A   23008.72951815 -.00000133  00000+0  00000+0 0  9990
2 37948  49.9664 286.8391 0086265 221.1444 317.7565  1.00287561 40810
BEIDOU 11 (C05)         
1 38091U 12008A   23008.84086712  .00000069  00000+0  00000+0 0  9994
2 38091   2.0347  71.3944 0011037 306.4286  91.7997  1.00268557 39893
BEIDOU 12 (C11)         
1 38250U 12018A   23008.78868824 -.00000088  00000+0  00000+0 0  9999
2 38250  56.6251 346.7720 0024946 259.3347  99.6271  1.86234299 72908
BEIDOU 13 (C12)         
1 38251U 12018B   23007.91509067 -.00000093  00000+0  00000+0 0  9991
2 38251  56.5395 346.1111 0015897 262.5128 274.8387  1.86234108 72895
BEIDOU 15 (C14)         
1 38775U 12050B   23008.97501403 -.00000019  00000+0  00000+0 0  9999
2 38775  55.5279 104.7723 0011612 325.5661  37.8166  1.86231148 70291
BEIDOU 16 (C02)         
1 38953U 12059A   23006.76581910 -.00000163  00000+0  00000+0 0  9992
2 38953   1.4287  82.2840 0009611 289.0502  94.4168  1.00269038 37303
BEIDOU 17 (C31)         
1 40549U 15019A   23008.80275605 -.00000149  00000+0  00000+0 0  9997
2 40549  51.5325 310.3638 0036803 200.6350 337.5868  1.00253261 28498
BEIDOU 18 (C57)         
1 40748U 15037A   23007.51366760 -.00000096  00000+0  00000+0 0  9999
2 40748  55.7866 344.8666 0003792 334.4447 202.9503  1.86233210 50719
BEIDOU 19 (C58)         
1 40749U 15037B   23006.77741204 -.00000100  00000+0  00000+0 0  9993
2 40749  55.7908 344.8822 0006785 310.7031 227.1170  1.86232852 50699
BEIDOU 20 (C18)         
1 40938U 15053A   23008.70427958 -.00000095  00000+0  00000+0 0  9996
2 40938  51.1804 273.5105 0043238 194.2152 347.9389  1.00292108 26769
BEIDOU IGSO-6 (C13)     
1 41434U 16021A   23008.61694508 -.00000141  00000+0  00000+0 0  9993
2 41434  58.3990  50.7209 0049571 222.7957 151.9987  1.00285674 24891
BEIDOU-2 G7 (C03)       
1 41586U 16037A   23008.85418811 -.00000341  00000+0  00000+0 0  9997
2 41586   1.8385  70.1896 0007863 342.8302 113.0050  1.00264949 24201
BEIDOU-3 M1 (C19)       
1 43001U 17069A   23008.19458181 -.00000027  00000+0  00000+0 0  9999
2 43001  55.6798 104.8259 0008956 286.6333  69.9409  1.86231430 35203
BEIDOU-3 M2 (C20)       
1 43002U 17069B   23008.10924758 -.00000028  00000+0  00000+0 0  9990
2 43002  55.6788 104.8643 0006468 311.7552  30.3780  1.86231187 35190
BEIDOU-3 M3 (C27)       
1 43107U 18003A   23009.14796102 -.00000089  00000+0  00000+0 0  9997
2 43107  55.2391 345.6377 0003532  41.1710  83.8411  1.86232316 33984
BEIDOU-3 M4 (C28)       
1 43108U 18003B   23008.88244317 -.00000090  00000+0  00000+0 0  9996
2 43108  55.2329 345.6340 0004405 268.6958  81.0372  1.86231040 33974
BEIDOU-3 M5 (C21)       
1 43207U 18018A   23008.26750498 -.00000026  00000+0  00000+0 0  9995
2 43207  55.6391 104.9300 0003692 341.6599  18.3373  1.86231431 33359
BEIDOU-3 M6 (C22)       
1 43208U 18018B   23008.32779119 -.00000025  00000+0  00000+0 0  9993
2 43208  55.6384 104.9334 0006445 297.2283  58.4562  1.86231514 33340
BEIDOU-3 M7 (C29)       
1 43245U 18029A   23007.73524845 -.00000096  00000+0  00000+0 0  9992
2 43245  55.1443 343.4399 0001755 287.8645 240.5852  1.86232482 32495
BEIDOU-3 M8 (C30)       
1 43246U 18029B   23008.74046660 -.00000090  00000+0  10000-3 0  9998
2 43246  55.1419 343.4346 0004692 341.5674 187.5366  1.86232660 32504
BEIDOU IGSO-7 (C16)     
1 43539U 18057A   23008.87410384 -.00000081  00000+0  00000+0 0  9991
2 43539  55.0970 173.9123 0051964 224.7467 134.6515  1.00247352 16562
BEIDOU-3 M9 (C23)       
1 43581U 18062A   23008.70118737  .00000065  00000+0  00000+0 0  9994
2 43581  54.2227 225.0639 0002482 329.4593  24.8876  1.86231967 30240
BEIDOU-3 M10 (C24)      
1 43582U 18062B   23007.86838332  .00000069  00000+0  00000+0 0  9995
2 43582  54.2226 225.0817 0007029  24.6371 223.2920  1.86231545 30234
BEIDOU-3 M11 (C25)      
1 43602U 18067A   23008.58737726  .00000067  00000+0  00000+0 0  9996
2 43602  54.3070 223.6904 0008030  21.1786  29.7812  1.86231569 29740
BEIDOU-3 M12 (C26)      
1 43603U 18067B   23008.59540502  .00000067  00000+0  00000+0 0  9992
2 43603  54.3042 223.6564 0004965  16.7488 309.9311  1.86231515 29753
BEIDOU-3 M13 (C32)      
1 43622U 18072A   23009.14548664 -.00000018  00000+0  00000+0 0  9995
2 43622  55.6069 104.4486 0005933 277.8799  86.2466  1.86231300 29283
BEIDOU-3 M14 (C33)      
1 43623U 18072B   23008.65435391 -.00000022  00000+0  00000+0 0  9998
2 43623  55.6091 104.4575 0003374 303.0434 182.0403  1.86231286 29271
BEIDOU-3 M15 (C34)      
1 43647U 18078A   23008.08677837 -.00000094  00000+0  00000+0 0  9999
2 43647  55.0413 343.5691 0007973 355.6517   4.0604  1.86227440 28764
BEIDOU-3 M16 (C35)      
1 43648U 18078B   23007.68660410 -.00000096  00000+0  00000+0 0  9996
2 43648  55.0361 343.5886 0004459 356.9239   2.6361  1.86232040 28771
BEIDOU-3 G1 (C59)       
1 43683U 18085A   23008.86697850 -.00000266  00000+0  00000+0 0  9991
2 43683   1.0549 146.6115 0002545  43.3461  10.1819  1.00277073 15470
BEIDOU-3 M17 (C36)      
1 43706U 18093A   23008.91114751  .00000065  00000+0  00000+0 0  9992
2 43706  54.3052 224.9560 0007024 290.7089  69.2879  1.86232132 28141
BEIDOU-3 M18 (C37)      
1 43707U 18093B   23009.09546677  .00000065  00000+0  00000+0 0  9999
2 43707  54.3051 224.9411 0006970 325.0626 249.9333  1.86232299 28151
BEIDOU-3 IGSO-1 (C38)   
1 44204U 19023A   23008.53268275 -.00000201  00000+0  00000+0 0  9992
2 44204  56.8610  50.7764 0021775 206.2714 158.5591  1.00301640 13772
BEIDOU-2 G8             
1 44231U 19027A   23008.86810027 -.00000235  00000+0  00000+0 0  9997
2 44231   1.3628  80.5774 0006120 140.3594 344.2874  1.00273074 13484
BEIDOU-3 IGSO-2 (C39)   
1 44337U 19035A   23008.85534047 -.00000095  00000+0  00000+0 0  9991
2 44337  55.1221 169.9012 0029510 192.4080 170.7713  1.00295139 13110
BEIDOU-3 M23 (C45)      
1 44542U 19061A   23008.31079924  .00000068  00000+0  00000+0 0  9996
2 44542  54.5320 225.1589 0008807   1.6750 358.4035  1.86231530 22409
BEIDOU-3 M24 (C46)      
1 44543U 19061B   23009.24519152  .00000065  00000+0  00000+0 0  9999
2 44543  54.5289 225.0972 0005870 356.1301 181.9782  1.86231861 22412
BEIDOU-3 IGSO-3         
1 44709U 19073A   23005.34406189 -.00000194  00000+0  10000-3 0  9997
2 44709  56.9384 294.2842 0025663 181.8329 227.9589  1.00247626 11828
BEIDOU-3 M21            
1 44793U 19078A   23008.28115368 -.00000093  00000+0  10000-3 0  9995
2 44793  54.8889 343.5596 0006454   0.3790  83.9818  1.86232031 21268
BEIDOU-3 M22            
1 44794U 19078B   23008.56841935 -.00000092  00000+0  00000+0 0  9997
2 44794  54.8619 343.5369 0004561 349.1942 199.7875  1.86232525 21265
BEIDOU-3 M19            
1 44864U 19090A   23008.53127993 -.00000024  00000+0  00000+0 0  9992
2 44864  55.5415 104.6695 0016764 267.8443  90.4790  1.86231653 20840
BEIDOU-3 M20            
1 44865U 19090B   23008.36404343 -.00000025  00000+0  00000+0 0  9992
2 44865  55.5438 104.7073 0014381 281.7019  54.3330  1.86231616 20819
BEIDOU-3 G2             
1 45344U 20017A   23009.10604903 -.00000128  00000+0  00000+0 0  9997
2 45344   1.9898   3.0893 0001232 254.7136 328.7965  1.00272618 10688
BEIDOU-3 G3             
1 45807U 20040A   23009.06633352 -.00000339  00000+0  00000+0 0  9996
2 45807   0.9948 312.5247 0008934 342.7520 307.3809  1.00265583  9499
